<?xml version="1.0" encoding="utf-8" ?>
<kml xmlns="http://www.opengis.net/kml/2.2">
<Document id="root_doc">
<Folder><name>her.27.28</name>
  <Placemark id="her.27.28.1">
	<name>her.27.28</name>
	<Style><LineStyle><color>ff0000ff</color></LineStyle><PolyStyle><fill>0</fill></PolyStyle></Style>
      <Polygon><outerBoundaryIs><LinearRing><coordinates>21.7203494,57.574681 21.7401412,57.5800102 21.7685081,57.5842294 21.796875,57.5884486 21.796875,57.5887277 21.8217204,57.5934563 21.8465657,57.5981848 21.8771714,57.5984737 21.9077771,57.5987625 21.9383827,57.5990514 21.9446142,57.5993303 21.9647772,57.6005111 21.9821751,57.6021875 21.9976311,57.6040009 22.0063947,57.6054215 22.0287044,57.6098214 22.0608937,57.6176786 22.0949301,57.6277892 22.1289665,57.6378998 22.134931,57.6382186 22.1484375,57.643694 22.1579082,57.6472902 22.1936162,57.65625 22.1956758,57.6564887 22.2087184,57.6593862 22.2512584,57.6714714 22.2937983,57.6835566 22.3161975,57.6889437 22.3509984,57.6991781 22.3857992,57.7094124 22.4206001,57.7196467 22.4554009,57.729881 22.4775693,57.735461 22.4997377,57.7410409 22.5,57.7410713 22.5270562,57.7471763 22.5541123,57.7532812 22.5556457,57.7535603 22.5693713,57.7557913 22.5816386,57.7574666 22.5932857,57.75862 22.604739,57.7588273 22.6067219,57.7582421 22.6068321,57.7572751 22.5854204,57.7311475 22.5772763,57.7128708 22.5762118,57.7095495 22.5745897,57.697405 22.5737422,57.6852393 22.5747387,57.6765385 22.5762118,57.6673676 22.5803273,57.65625 22.5799714,57.65625 22.586695,57.6392246 22.6016738,57.6170861 22.6101813,57.6070263 22.619206,57.5982517 22.6274329,57.5910751 22.6497304,57.5750169 22.664468,57.565594 22.696321,57.5487462 22.7102481,57.5438126 22.7234647,57.5374671 22.7468727,57.5286909 22.7727745,57.5213217 22.8016942,57.5099686 22.8071467,57.5080621 22.809833,57.5080018 22.8252294,57.4981123 22.8463588,57.4917063 22.8507754,57.486303 22.8515625,57.4863281 22.8515625,57.4857701 22.8590368,57.4808528 22.8603386,57.4804687 22.8705924,57.4749542 22.8871647,57.4577242 22.9068124,57.4447606 22.9156371,57.4304152 22.9384851,57.4172363 22.945805,57.4137533 22.9778808,57.4039577 22.9879847,57.3996781 23.0009787,57.3962727 23.0081888,57.3944798 23.012439,57.3924717 23.0145561,57.3909156 23.0188254,57.3863621 23.0223842,57.3852648 23.0275007,57.3811523 23.0315068,57.3797971 23.0371522,57.3783776 23.0672721,57.3728244 23.0886728,57.3668414 23.0993189,57.365822 23.1219084,57.3667253 23.1227515,57.3663568 23.1323595,57.3601063 23.1325775,57.3561782 23.128346,57.3532569 23.126847,57.3499122 23.1269389,57.3485779 23.1293567,57.349515 23.1309046,57.3411041 23.1274526,57.3434352 23.1275504,57.3390737 23.131978,57.3387305 23.1349494,57.3360503 23.1304554,57.3349591 23.1385784,57.3332087 23.1365988,57.331759 23.1332242,57.3314447 23.133033,57.331284 23.132217,57.3282604 23.1324937,57.3277515 23.1345283,57.3249485 23.1347359,57.324846 23.1348433,57.3261219 23.1376922,57.3252316 23.1420699,57.3189973 23.1458485,57.316798 23.1509122,57.3128707 23.1575276,57.3055795 23.158728,57.3046875 23.1584086,57.3046875 23.160903,57.3018492 23.1634254,57.2956569 23.1687442,57.2732971 23.1796472,57.2621408 23.175884,57.2495815 23.1785769,57.2343516 23.1788445,57.2338759 23.1872704,57.2221549 23.2022465,57.2082766 23.203125,57.2070312 23.203125,57.2056361 23.2127734,57.1879307 23.2324975,57.1651468 23.2323915,57.162147 23.2394573,57.1622294 23.2385185,57.1611604 23.2343091,57.160724 23.2318941,57.1586301 23.2328029,57.1496423 23.2303659,57.1410435 23.2304202,57.137834 23.2312772,57.1351609 23.2355057,57.1289062 23.235876,57.1289062 23.2362469,57.1274049 23.2348526,57.1215122 23.2364419,57.1116163 23.2385429,57.1067204 23.2388448,57.106423 23.2504876,57.0981359 23.2594022,57.0894181 23.2646497,57.0856485 23.2857702,57.0731027 23.3103336,57.0619419 23.3302912,57.054996 23.3614265,57.0463464 23.3789365,57.0429981 23.4118766,57.0380135 23.4143378,57.0377343 23.4344037,57.0360227 23.4490139,57.0351563 23.4604827,57.0351858 23.4822769,57.0362722 23.4892944,57.0342097 23.5136712,57.0108963 23.5193731,56.9989748 23.5197201,56.9986497 23.5234352,56.9953597 23.5289397,56.9913802 23.535538,56.9893455 23.540637,56.9868444 23.546442,56.9830071 23.5538495,56.978263 23.5546875,56.9782366 23.5546875,56.9779576 23.5576541,56.9766974 23.5617294,56.9755033 23.5684174,56.9745423 23.5964119,56.9717706 23.6134295,56.9660114 23.6272138,56.9638143 23.6598871,56.9622982 23.6925737,56.9635373 23.709783,56.9648945 23.7417119,56.9680809 23.7539423,56.9696742 23.7722282,56.9723296 23.8114207,56.9792926 23.8344274,56.9837183 23.8574342,56.9881439 23.8791726,56.9930416 23.90625,56.9998866 23.9253163,57.0060825 23.9305156,57.0060825 23.932281,57.0056303 23.9327565,57.0042759 23.9324847,57.0036855 23.9287825,57.0013028 23.9222834,56.9925106 23.917734,56.9937497 23.9156759,56.9913303 23.922175,56.9919794 23.9308598,56.9989932 23.9314377,56.9855438 23.9310919,56.9851297 23.9259346,56.9830285 23.9202873,56.9816529 23.9193811,56.9815212 23.9085526,56.9810267 23.90625,56.9813058 23.8990004,56.9840215 23.8907781,56.9838098 23.8795497,56.981539 23.8788526,56.9813596 23.8699257,56.9780149 23.8557349,56.9698941 23.8468328,56.9664342 23.8151512,56.9563924 23.813956,56.9562455 23.8107272,56.9570707 23.8101172,56.9631783 23.8079458,56.9672269 23.805697,56.9684414 23.7943594,56.9708964 23.7853858,56.9709535 23.7816864,56.9704775 23.7763209,56.9688516 23.7742776,56.9663236 23.7742763,56.9625326 23.7756352,56.9598854 23.7770888,56.9579917 23.7775676,56.957691 23.7833771,56.9563897 23.7829216,56.953125 23.7829483,56.953125 23.7810982,56.9512081 23.774973,56.9494438 23.773566,56.9492806 23.7485971,56.9483746 23.7402204,56.9456979 23.7332824,56.9414604 23.73228,56.9413387 23.7203168,56.9405764 23.698644,56.9419347 23.6929591,56.9395308 23.6894325,56.9350157 23.6800827,56.9322268 23.6599174,56.9314538 23.6506338,56.9318691 23.6488869,56.9321463 23.6458766,56.9329603 23.645431,56.9334373 23.6452445,56.936914 23.6449049,56.9374721 23.6414244,56.9403296 23.6404358,56.9407167 23.6266528,56.9427462 23.6253485,56.9426171 23.6194577,56.9406703 23.6128256,56.9350986 23.6101453,56.9312657 23.6065292,56.9295986 23.6041257,56.9270077 23.6036882,56.9249943 23.6045122,56.9244912 23.6111952,56.92041 23.6200085,56.9184794 23.6223586,56.917293 23.6253592,56.9145339 23.6290208,56.9037671 23.6294718,56.8988879 23.6288325,56.8970093 23.6264513,56.8934721 23.6185308,56.8873134 23.6156852,56.8859133 23.6070129,56.8853117 23.6033452,56.883298 23.5997959,56.8814408 23.5992807,56.8779298 23.5996158,56.8767358 23.603035,56.8717906 23.6020114,56.8633277 23.5873218,56.8517805 23.5747246,56.8482867 23.5701947,56.8459212 23.5695407,56.8448977 23.5690835,56.8434511 23.5700315,56.8391495 23.5765426,56.8234429 23.5776731,56.8143558 23.5784831,56.812947 23.5805228,56.8113776 23.5860652,56.810239 23.5930756,56.8061341 23.5946985,56.8056695 23.5997587,56.8045799 23.6038351,56.8048028 23.5810621,56.8144091 23.5795997,56.824802 23.5726562,56.8426431 23.5790454,56.847106 23.589848,56.8503681 23.5946186,56.8553456 23.6040159,56.8614472 23.6055332,56.8628498 23.6071132,56.8657145 23.6071122,56.8717391 23.6042423,56.8777797 23.6042429,56.8786664 23.6064842,56.8823593 23.6181436,56.8857032 23.6215795,56.8872947 23.6272089,56.8916863 23.6326272,56.8961952 23.6279398,56.916207 23.6216261,56.9196333 23.6125169,56.9221835 23.6093456,56.9251178 23.609741,56.9270734 23.6143341,56.9291924 23.6147403,56.9296875 23.6182857,56.9363492 23.6194268,56.9373029 23.6257576,56.9413917 23.6267127,56.9416087 23.6297317,56.9413534 23.6404647,56.9391632 23.644309,56.9313569 23.6582119,56.9297745 23.6832618,56.9307767 23.6848772,56.9280838 23.6868486,56.9307241 23.696822,56.935798 23.6992959,56.9400249 23.7140917,56.9389749 23.7274618,56.9389251 23.7328926,56.9395257 23.7392296,56.9407874 23.7409577,56.9415096 23.7488621,56.9470052 23.7732018,56.9474339 23.7817158,56.9489692 23.7865278,56.9521571 23.7865037,56.953125 23.7873715,56.9572415 23.7789164,56.9622011 23.7786953,56.9624389 23.777414,56.9674906 23.7776114,56.9680407 23.778554,56.9686592 23.78592,56.9698585 23.794407,56.9692492 23.8033406,56.9673223 23.8040671,56.9670616 23.8070771,56.9650511 23.8080823,56.9626164 23.8058202,56.9602509 23.8051562,56.9601094 23.80352,56.9603397 23.800981,56.9630322 23.7985734,56.9626069 23.798299,56.962423 23.8006068,56.9596024 23.804493,56.9566472 23.8101345,56.954316 23.8113877,56.9543062 23.8158733,56.9542713 23.8189793,56.954927 23.8326436,56.9593503 23.8335595,56.9595144 23.8343533,56.9596568 23.8481637,56.9643136 23.8572826,56.9676626 23.8651105,56.9707961 23.8685111,56.9742093 23.8793468,56.9779921 23.8870594,56.979881 23.90625,56.9787946 23.90625,56.9785156 23.9161745,56.9782662 23.9312077,56.9817107 23.9327796,56.982326 23.9386019,56.9869667 23.9396269,56.9957587 23.9460592,56.9962962 23.9590805,56.9952859 23.9627405,56.9952852 23.9689949,56.99669 23.9743454,56.9997808 23.9747308,57.0001343 23.9800035,57.008401 23.9853019,57.0124651 23.9979825,57.0173314 24.0063277,57.0190744 24.0080354,57.020618 24.0230387,57.0243309 24.0357453,57.0337414 24.0364946,57.0345997 24.0361396,57.0347499 24.0308951,57.0344924 24.0333399,57.0370244 24.0366573,57.038244 24.0376168,57.0384343 24.0447012,57.0388054 24.0463187,57.0387938 24.0587939,57.0374331 24.0616421,57.0383658 24.0619648,57.0383276 24.0637965,57.0352381 24.0596781,57.0298496 24.0687892,57.0234885 24.068644,57.0197079 24.068759,57.0195339 24.0708357,57.0194563 24.0717092,57.0199484 24.0724877,57.0211869 24.0715663,57.0239747 24.073891,57.024101 24.0743209,57.0251682 24.067714,57.0254228 24.0625191,57.0288166 24.0619473,57.0303028 24.0623581,57.0314052 24.065055,57.0330431 24.0697318,57.0302486 24.0704638,57.030315 24.0712827,57.0328223 24.073071,57.0332752 24.0769488,57.0311323 24.0822744,57.0267677 24.0855269,57.0208534 24.0867097,57.0172727 24.087378,57.0089443 24.0855309,57.0090652 24.0843489,57.0136517 24.0808024,57.0153816 24.0836229,57.0089042 24.0797073,57.0076972 24.0814065,57.0063694 24.0873168,57.0079787 24.0879817,57.0054038 24.0850266,56.9897934 24.0866519,56.989391 24.0867537,56.9782311 24.0846692,56.9719867 24.0783333,56.9693429 24.082328,56.9687353 24.0865331,56.9514298 24.0898385,56.9517303 24.091373,56.9494128 24.0858269,56.9456148 24.0853155,56.9438123 24.0873219,56.9428037 24.0903511,56.9470094 24.0958586,56.9440054 24.0924755,56.9484043 24.1066527,56.9327831 24.1070859,56.9259381 24.108934,56.9267964 24.1092952,56.933157 24.1419194,56.9175781 24.1470025,56.9185352 24.1632369,56.9046801 24.1637475,56.9042997 24.1727695,56.9018478 24.1823022,56.8975075 24.1968652,56.883848 24.1971123,56.8835891 24.1983191,56.8808432 24.1982771,56.8792363 24.1971492,56.8778059 24.1887673,56.8717411 24.1881514,56.8705347 24.1886003,56.8667283 24.1903368,56.8648992 24.208351,56.8529084 24.2162246,56.8484997 24.2166928,56.8482786 24.224861,56.8459688 24.2325596,56.8341906 24.2335548,56.8335186 24.2397527,56.8315126 24.2483146,56.8315547 24.265486,56.8339043 24.265029,56.8342587 24.2591906,56.8351285 24.2483371,56.8334558 24.2376794,56.8334002 24.233408,56.8389519 24.2320884,56.844794 24.2237263,56.8481348 24.2212421,56.8534402 24.2091954,56.8604542 24.2009521,56.8625034 24.1939622,56.8676075 24.1937526,56.8679512 24.1965342,56.872412 24.2025239,56.8775142 24.2066545,56.8778321 24.208248,56.877528 24.2280365,56.871479 24.2337006,56.868054 24.2410684,56.8668789 24.2689219,56.8515329 24.2699921,56.8512654 24.2719458,56.8522149 24.2725616,56.8525687 24.2731707,56.8529605 24.2726564,56.8535784 24.2620651,56.8594828 24.2603449,56.862317 24.2586371,56.8638411 24.2414935,56.8731371 24.2087373,56.8826432 24.2019846,56.8868253 24.197192,56.8910667 24.1954106,56.8932273 24.1908792,56.9013805 24.1770217,56.9072211 24.13906,56.9304318 24.1485465,56.9282013 24.1484566,56.92649 24.1523314,56.9258153 24.1549746,56.9243557 24.1548086,56.9227912 24.1607538,56.9210385 24.1619101,56.9216977 24.1602745,56.9239645 24.1534376,56.9268105 24.1512125,56.9295464 24.1496032,56.9282475 24.1448359,56.9319299 24.1371628,56.9337974 24.1349593,56.9334579 24.1372343,56.9323623 24.1364053,56.9316638 24.1315399,56.93497 24.1073025,56.943984 24.1057096,56.9446921 24.1013677,56.9478034 24.0987104,56.9504561 24.0927109,56.9600129 24.094009,56.9606351 24.0968034,56.957352 24.0966067,56.9602274 24.0962131,56.9608926 24.0917261,56.9620943 24.0902289,56.9649158 24.0927337,56.9841967 24.0967544,56.9854872 24.0976743,56.9885792 24.1077306,56.9910867 24.1123013,56.9911535 24.1134688,56.9950242 24.1076163,56.9951184 24.1010692,56.9911338 24.0940412,56.9905521 24.0961821,57.0058062 24.0943071,57.0146328 24.0954579,57.0164113 24.0930693,57.0241123 24.0892999,57.0287793 24.0932171,57.0277333 24.0910738,57.0278137 24.0943257,57.0231467 24.0983175,57.0220245 24.0989958,57.0200762 24.0970604,57.019244 24.1009271,57.014967 24.1050544,57.0155751 24.1025589,57.0162354 24.1008298,57.0207003 24.1024618,57.0245378 24.1101917,57.022845 24.1133204,57.0163875 24.1123168,57.0065045 24.1164418,57.0073664 24.1179219,57.0089626 24.1159908,57.0190607 24.11318,57.0215836 24.1227034,57.0235111 24.1308312,57.0306702 24.1254345,57.032521 24.1224774,57.0323199 24.1242517,57.0279747 24.1190028,57.0241525 24.1207032,57.0263653 24.1189289,57.0271297 24.1157594,57.0244743 24.1032687,57.0267677 24.0984647,57.0289 24.0936059,57.0291452 24.0923399,57.0294715 24.0862405,57.0315897 24.0816798,57.034573 24.0789438,57.0365041 24.0816057,57.0357395 24.0828629,57.036665 24.0775388,57.0376306 24.0745012,57.0399239 24.0774601,57.0450335 24.072208,57.0447117 24.075019,57.0463612 24.0735394,57.047206 24.0666807,57.0463368 24.0666038,57.04638 24.0550488,57.0522642 24.053871,57.0534633 24.0542305,57.0537124 24.0586246,57.0516468 24.0598753,57.0522937 24.0517342,57.0568914 24.0392231,57.0602227 24.03155,57.063893 24.0316846,57.0644004 24.0410219,57.0668966 24.0693024,57.071364 24.0877954,57.0754548 24.0990788,57.0782278 24.1036282,57.0805985 24.1103286,57.0823112 24.1321791,57.0895931 24.1464051,57.0948972 24.1676316,57.1035604 24.1888582,57.1122237 24.1979548,57.116666 24.219944,57.1289062 24.2202919,57.1289062 24.2315092,57.1357803 24.245768,57.1461287 24.2578125,57.15625 24.2593367,57.1564199 24.2674286,57.1569365 24.2787735,57.1508853 24.2802151,57.1513308 24.2683814,57.1582555 24.2681046,57.1584637 24.2680608,57.1603914 24.2693496,57.1616327 24.2712682,57.1627029 24.3082798,57.1774992 24.313485,57.179993 24.3298194,57.1888551 24.3397657,57.1963691 24.3404784,57.1970129 24.3490593,57.2007083 24.3672411,57.2138718 24.3905256,57.2336518 24.4053516,57.253087 24.4114383,57.2663618 24.4124662,57.2871873 24.4085329,57.2919976 24.4079525,57.2934757 24.4065216,57.3017259 24.4068667,57.3046875 24.4087884,57.3112113 24.4086719,57.3116122 24.4030297,57.3174436 24.4049556,57.3202003 24.4038932,57.3379771 24.4053044,57.3408198 24.4052962,57.3413578 24.4033389,57.3499784 24.4004526,57.3559833 24.4017024,57.3631269 24.3989537,57.384905 24.3997941,57.3978426 24.3997796,57.398298 24.3981711,57.4057877 24.3936394,57.4145392 24.3925793,57.4248942 24.3881531,57.4359177 24.3849877,57.4496498 24.385864,57.4649335 24.3817868,57.47189 24.3801624,57.4804687 24.3794553,57.4814292 24.3812808,57.486521 24.3812788,57.4871147 24.3796099,57.4908565 24.3816832,57.4923182 24.379705,57.5049587 24.3806456,57.5127325 24.3716711,57.5331047 24.3613191,57.541442 24.3659856,57.549059 24.3689069,57.5605932 24.3638825,57.5762511 24.3644626,57.5814445 24.3684421,57.5838916 24.3692954,57.5889111 24.3719639,57.5913898 24.3721803,57.6006269 24.3810271,57.6078169 24.3821758,57.6106139 24.3862638,57.6114349 24.3874733,57.6164835 24.3800848,57.6295191 24.374881,57.6338682 24.3705146,57.6449586 24.3675141,57.6479985 24.370513,57.6522146 24.3703882,57.6547552 24.3694608,57.65625 24.3637548,57.6750717 24.3593271,57.6794457 24.3550813,57.6901761 24.3542132,57.6913793 24.3455414,57.6970415 24.3423699,57.7016521 24.3420563,57.7230628 24.3432508,57.7323031 24.3452547,57.734054 24.343423,57.7394686 24.3463143,57.7467604 24.3445283,57.7518204 24.3446172,57.7521895 24.3492205,57.7533962 24.3507916,57.7552758 24.3573329,57.7547112 24.3627656,57.7521998 24.3769546,57.7519656 24.3797373,57.7505507 24.3813632,57.750927 24.3778846,57.7528642 24.3647664,57.753387 24.3483672,57.7568547 24.3473896,57.7846633 24.3444372,57.7891331 24.3472126,57.7927716 24.3436118,57.7966949 24.3332473,57.8169795 24.3325614,57.819936 24.3324027,57.8235729 24.3327194,57.8271961 24.3329622,57.8276585 24.3362736,57.8279738 24.3364623,57.8283343 24.3346872,57.8296455 24.336575,57.8320312 24.3369271,57.8320312 24.3351449,57.8365026 24.346673,57.855038 24.3467975,57.8554879 24.3434659,57.8634601 24.3520455,57.8705908 24.3525085,57.8726761 24.349593,57.8765773 24.357269,57.8835533 24.3593394,57.8884689 24.3587359,57.8949589 24.3634462,57.896858 24.3655829,57.9003078 24.3707752,57.9035223 24.3724538,57.9094856 24.3772486,57.9117233 24.3789451,57.9195034 24.3834912,57.9204527 24.3865438,57.9250475 24.3907539,57.9520859 24.3978953,57.956308 24.4035826,57.9679273 24.4055492,57.9781054 24.4202886,57.9976732 24.4261769,57.9989086 24.4318706,58.0025737 24.4392529,58.0033931 24.4380275,58.0067192 24.4390951,58.0078125 24.4423217,58.0099198 24.4456428,58.0155367 24.4468536,58.0233337 24.4573324,58.0363615 24.4612175,58.0390183 24.4620769,58.044179 24.4689506,58.0490036 24.4787902,58.0699445 24.4779285,58.0738077 24.4808702,58.0742251 24.4812675,58.0768311 24.4773397,58.0828731 24.4812716,58.0849123 24.4773582,58.0855659 24.47484,58.0882531 24.4786998,58.0899754 24.4691889,58.0929477 24.4716378,58.0958796 24.4677883,58.0975466 24.4693406,58.0997483 24.4669359,58.1006224 24.4655423,58.1036452 24.4556673,58.1056752 24.4635385,58.1058446 24.4659241,58.1071094 24.4698772,58.1066558 24.4731185,58.1083145 24.4788686,58.1162204 24.4788668,58.1192766 24.4749345,58.1234376 24.4779688,58.125325 24.4744112,58.1279702 24.4778478,58.12994 24.4820638,58.1299322 24.482987,58.1313843 24.4743814,58.1402016 24.4795517,58.1524065 24.4670196,58.1623079 24.4688699,58.1689456 24.4649704,58.1743227 24.4604784,58.1754357 24.4549239,58.1731555 24.4525456,58.1733109 24.4525958,58.176191 24.4588696,58.1831679 24.4588557,58.1835937 24.4584785,58.1835937 24.4604154,58.1896878 24.4626535,58.1900446 24.4661254,58.1940391 24.4642353,58.1975495 24.4572397,58.2024431 24.4593526,58.2050714 24.4568394,58.2060021 24.4629426,58.2081074 24.4633557,58.2115414 24.4666694,58.2152364 24.4758201,58.2183363 24.4756473,58.2264771 24.479712,58.2300608 24.4811882,58.2347935 24.4793254,58.2406009 24.4692808,58.2449538 24.469359,58.2456763 24.4697185,58.2466342 24.4708889,58.2474771 24.4788184,58.2470006 24.4846904,58.2479397 24.4849356,58.2537411 24.4851328,58.2538598 24.4906982,58.2551194 24.4927942,58.2574383 24.5000697,58.2600098 24.5098102,58.2622176 24.517693,58.2669303 24.5151063,58.2684993 24.515536,58.2686698 24.5290312,58.2696348 24.5400923,58.2756093 24.5471172,58.2771121 24.5487121,58.2798986 24.5575277,58.2816056 24.5602685,58.2855659 24.5644221,58.2862972 24.5651025,58.2866611 24.5679541,58.2898657 24.5786662,58.2942243 24.581422,58.2970246 24.5860925,58.3040354 24.5864757,58.3073182 24.5849643,58.3147976 24.5814484,58.3235909 24.57851,58.3283095 24.5748676,58.3325232 24.5628337,58.3425446 24.5545743,58.3527791 24.5537699,58.3532999 24.5389566,58.359375 24.538637,58.359375 24.5123051,58.3694888 24.5096703,58.3701887 24.4820107,58.3760576 24.4798539,58.3767163 24.4789304,58.377897 24.481943,58.3831261 24.4823333,58.3835388 24.488361,58.3866808 24.5028656,58.3890911 24.5122083,58.3886708 24.5214722,58.3868377 24.5424821,58.3779742 24.5564035,58.376636 24.5596122,58.3746088 24.5594358,58.3685091 24.5615849,58.3654214 24.5665791,58.3633289 24.575531,58.3620249 24.5824766,58.3627552 24.583896,58.3632184 24.5889281,58.3652813 24.5996633,58.3706083 24.6078495,58.3773335 24.609375,58.3777902 24.609375,58.378069 24.6157048,58.380764 24.6167856,58.3822609 24.616405,58.3825049 24.6129491,58.3831396 24.6118909,58.3824921 24.609375,58.3805803 24.609375,58.3803014 24.5852158,58.3650692 24.5778471,58.3637139 24.5756576,58.3636425 24.568697,58.3645428 24.5670098,58.3650069 24.563102,58.3673965 24.5633971,58.3753936 24.5610642,58.3769952 24.5442059,58.3802493 24.5383741,58.3820033 24.5265204,58.387747 24.5245039,58.3883564 24.5166205,58.3902093 24.5057187,58.3911433 24.4844261,58.388473 24.4772851,58.3832368 24.4736196,58.3759077 24.4733514,58.3756958 24.4707229,58.3750215 24.4690999,58.3751746 24.4633425,58.3786271 24.4462006,58.3836199 24.437628,58.3853796 24.4190757,58.3869683 24.3806782,58.3857187 24.3422807,58.3844692 24.326027,58.3826048 24.3198161,58.3814843 24.3079528,58.3789662 24.3037351,58.37725 24.3019841,58.3756047 24.2952753,58.3682245 24.2924399,58.3633823 24.2918518,58.359375 24.2922275,58.359375 24.2932564,58.3564368 24.2907904,58.3502073 24.2897158,58.3360347 24.2917537,58.3285418 24.2893314,58.3227814 24.2843585,58.3182693 24.2769336,58.300101 24.2797219,58.2972029 24.2695264,58.2908586 24.2653607,58.2852216 24.2682822,58.2795805 24.266418,58.2771662 24.2657216,58.2760814 24.2653247,58.2759659 24.2578125,58.2762277 24.2575477,58.2762277 24.2505614,58.2737793 24.2349442,58.2737072 24.2327636,58.2733138 24.2230201,58.2692682 24.2173929,58.2706788 24.210007,58.2699488 24.2050523,58.2659839 24.1906838,58.2684534 24.1843653,58.2645175 24.1826274,58.2652183 24.1815958,58.2652215 24.1785914,58.2643924 24.1781141,58.2645779 24.1748626,58.2694089 24.1717809,58.2699791 24.1688244,58.2637223 24.1600835,58.2607449 24.1613622,58.256597 24.1526035,58.2553071 24.1470957,58.2519633 24.1381632,58.2503906 24.1365602,58.2444875 24.1327418,58.2454696 24.1255975,58.2440686 24.1251804,58.2418591 24.1219331,58.2417628 24.1202883,58.2392935 24.1215624,58.2328306 24.118458,58.2318985 24.1135789,58.2322803 24.1137989,58.2373046 24.1113374,58.2398763 24.0951169,58.2458764 24.0824574,58.2478247 24.0819072,58.2496238 24.0732954,58.2516824 24.0732818,58.2539556 24.0664072,58.2591459 24.0595376,58.2684115 24.058964,58.274231 24.0519669,58.2763855 24.0507922,58.2824618 24.048398,58.2838224 24.0442241,58.2832168 24.041042,58.2947909 24.0391783,58.2951773 24.034725,58.3009388 24.0296474,58.3022307 24.0264189,58.3007749 24.0242676,58.3017759 24.0191531,58.3074749 24.0168515,58.3138545 24.0130383,58.3156182 24.0108848,58.3192816 24.0010682,58.3199923 24.0005506,58.3078979 24.0045782,58.3040466 24.0011891,58.3007563 24.0027761,58.2980711 24.0000679,58.2969216 23.9944299,58.3016208 23.9952867,58.3037751 23.9858547,58.3111404 23.9809049,58.3131269 23.9834131,58.3141733 23.9835128,58.3145109 23.9828513,58.3151901 23.9801143,58.3160539 23.9795368,58.3160558 23.9769682,58.3148576 23.9767743,58.3144974 23.9811575,58.3106362 23.9812791,58.3096946 23.98079,58.3056064 23.9805911,58.3052614 23.9786251,58.3063354 23.9766223,58.3052747 23.9738714,58.3096606 23.9733185,58.3157622 23.9696016,58.3140949 23.9666603,58.314347 23.9575154,58.3251634 23.9568996,58.3255624 23.9514939,58.3268188 23.9505903,58.3269356 23.9438804,58.3262424 23.9417655,58.325441 23.94052,58.3246512 23.9373667,58.3194841 23.937039,58.3197544 23.9339612,58.3236492 23.9150457,58.330025 23.9125353,58.3303854 23.9113637,58.3300344 23.9095262,58.3275276 23.9069083,58.3146287 23.90625,58.3141741 23.904301,58.3142627 23.8937922,58.3174164 23.8933696,58.317591 23.887745,58.321385 23.8771569,58.3224626 23.8666623,58.3323153 23.8641639,58.3373141 23.8603173,58.3403891 23.8559328,58.3415943 23.8581557,58.3428524 23.8516803,58.3497123 23.8487322,58.3508135 23.8426842,58.3577257 23.8423687,58.3579642 23.8379493,58.359375 23.835512,58.359375 23.8348737,58.3596261 23.8328527,58.3595144 23.8331842,58.359375 23.8260883,58.3566597 23.8279159,58.3505898 23.822113,58.3490955 23.8205142,58.3462785 23.8267269,58.3398935 23.8234763,58.3388017 23.8151128,58.3399639 23.8088757,58.3421617 23.7976114,58.3490562 23.7947854,58.3482224 23.7994107,58.3463629 23.7962847,58.3439283 23.7935894,58.3429503 23.7899627,58.3436933 23.786576,58.3455687 23.788606,58.3464395 23.7875884,58.3477385 23.7853194,58.3489081 23.7814595,58.348859 23.7731239,58.3547463 23.7686785,58.3549495 23.7686464,58.3513484 23.7646908,58.3523808 23.7658514,58.346631 23.776827,58.3490875 23.7804722,58.3471508 23.7827858,58.3434944 23.7839864,58.3374965 23.7948557,58.3360792 23.7930886,58.3357887 23.7925142,58.3287777 23.7917511,58.3287057 23.7855881,58.3313426 23.7838393,58.3347105 23.7793818,58.3365964 23.7775728,58.339738 23.7715938,58.3422464 23.7733805,58.3469285 23.7633026,58.3433272 23.7667387,58.3375049 23.7647893,58.3338023 23.7513489,58.3374381 23.745833,58.3417011 23.7458084,58.3436455 23.7373443,58.349749 23.7385839,58.3508857 23.7449884,58.3510993 23.7482883,58.3534287 23.7442348,58.359375 23.7434993,58.359375 23.7436945,58.3618011 23.7392828,58.3655313 23.7318017,58.3656667 23.7315713,58.3659335 23.7359144,58.3702776 23.7343504,58.3736821 23.7170513,58.3859819 23.7150555,58.3984016 23.7082673,58.4047073 23.7087837,58.4075195 23.7064056,58.4108346 23.7001729,58.416312 23.6942458,58.4172745 23.6899335,58.4233367 23.6920081,58.4263974 23.6852638,58.4310503 23.6767343,58.4320697 23.6833956,58.4367861 23.6833987,58.4398715 23.6802738,58.4413559 23.6785554,58.4448662 23.6826881,58.4448572 23.6836894,58.4459124 23.6804208,58.4509747 23.6848081,58.4531465 23.6852291,58.4613167 23.6820083,58.4627151 23.6826071,58.4708402 23.6847397,58.4730821 23.6842762,58.4758425 23.6882975,58.4786142 23.6912055,58.4834456 23.6904424,58.4896367 23.6869963,58.4911489 23.6819453,58.4912179 23.6825184,58.4937783 23.685593,58.4990435 23.6924474,58.4990842 23.6919997,58.5 23.685,58.5 23.6427273,58.5 23.6004545,58.5 23.5581818,58.5 23.5159091,58.5 23.4736364,58.5 23.4313636,58.5 23.3890909,58.5 23.3468182,58.5 23.3045455,58.5 23.2622727,58.5 23.22,58.5 23.2174385,58.4999883 23.2187448,58.4988261 23.2318524,58.497506 23.239399,58.4948879 23.2539572,58.4947948 23.2546527,58.4946622 23.2592177,58.4918227 23.2680814,58.4912986 23.2715966,58.4903295 23.2724308,58.4898802 23.2713575,58.4872841 23.2724766,58.485864 23.2732756,58.4856002 23.2786433,58.4842461 23.2868956,58.484587 23.289445,58.483813 23.2903516,58.4832373 23.2905827,58.4822754 23.2892681,58.4803073 23.2859737,58.4788615 23.2866557,58.4776109 23.2953295,58.4746422 23.2946496,58.4767038 23.3015414,58.4772528 23.3017719,58.4770203 23.2996082,58.4730434 23.3017904,58.4713879 23.2995687,58.4689651 23.2996668,58.4679378 23.3005164,58.4672534 23.3046463,58.4673979 23.3021235,58.4634832 23.3032999,58.4608101 23.318988,58.4590979 23.3267024,58.4537458 23.3242053,58.4523745 23.3243074,58.4462578 23.3177568,58.4472117 23.3114176,58.4452151 23.3110369,58.4343221 23.3091762,58.4295382 23.3088953,58.4292784 23.3048062,58.4299322 23.299394,58.4281749 23.2963386,58.4365464 23.2963191,58.440711 23.2965457,58.4410079 23.3024075,58.4421498 23.3010331,58.4462481 23.3030366,58.447277 23.2994596,58.4508458 23.3043143,58.4535384 23.3047673,58.4580693 23.2953858,58.4552428 23.2946007,58.4510829 23.2885743,58.4508069 23.2846057,58.4476068 23.2812674,58.4482638 23.2796264,58.4507672 23.2744265,58.4523113 23.2719157,58.4550372 23.2632222,58.4504184 23.260968,58.450025 23.2602344,58.450222 23.2612746,58.4517961 23.2652071,58.4533492 23.2647628,58.4551488 23.2633812,58.455828 23.2543494,58.4578348 23.2437862,58.4564114 23.2400181,58.4585685 23.2384101,58.4586918 23.2361574,58.4584661 23.2345235,58.457762 23.2304834,58.4545959 23.2299407,58.4545825 23.2286186,58.4567419 23.224766,58.4582734 23.2212654,58.4563233 23.2201725,58.4506187 23.2326598,58.4465299 23.2329623,58.4437639 23.2400723,58.4439496 23.2411501,58.4395097 23.2449468,58.440163 23.2461842,58.4424062 23.252328,58.4413565 23.2524014,58.4402388 23.2480174,58.441008 23.2478195,58.4402043 23.2562978,58.4375993 23.2592846,58.4347352 23.2593951,58.4342062 23.2541347,58.4282848 23.2469573,58.4274255 23.2378408,58.43018 23.2328165,58.4288656 23.2346016,58.4314692 23.2304645,58.4318225 23.2269288,58.4342871 23.2214341,58.4310048 23.217841,58.431084 23.2147684,58.432669 23.2153018,58.4348553 23.2098526,58.4415693 23.2105199,58.4439007 23.2080928,58.4442201 23.2058575,58.4429497 23.203125,58.440569 23.203125,58.4397321 23.2022944,58.4390329 23.1997107,58.4386826 23.198602,58.4389095 23.1978629,58.4399889 23.1987338,58.4425884 23.1957988,58.4471495 23.1976871,58.4481093 23.1974812,58.4512972 23.2006614,58.4517506 23.2009358,58.452352 23.2010753,58.4534792 23.1985412,58.4555048 23.1937799,58.4561086 23.1882033,58.455049 23.1786726,58.4489524 23.1761689,58.4505128 23.1709321,58.4511176 23.1706753,58.4512941 23.1720607,58.454524 23.1695468,58.4624873 23.1634285,58.4615623 23.1609666,58.4623818 23.1667625,58.4653757 23.1683518,58.4695835 23.1640383,58.4716713 23.1642649,58.4744387 23.1583523,58.4768804 23.1536448,58.4709498 23.1525264,58.4661322 23.1452732,58.462956 23.1497045,58.4609528 23.1425434,58.4606986 23.139829,58.4595246 23.1472557,58.4553703 23.1410294,58.4521114 23.1484798,58.4501981 23.1441735,58.4480221 23.1508839,58.446246 23.1602449,58.4417502 23.1610693,58.4311943 23.1569986,58.4319539 23.1531774,58.4358757 23.155223,58.4399302 23.1541206,58.4417855 23.1445313,58.4416667 23.1413856,58.4389256 23.1311177,58.442763 23.1223593,58.4409462 23.1212434,58.4391175 23.1215311,58.4387017 23.1238611,58.4377626 23.1256287,58.437627 23.1310724,58.4395313 23.1317352,58.4396625 23.1342275,58.4393346 23.1336477,58.4355223 23.1424326,58.4315156 23.1285079,58.4319546 23.1275171,58.4300214 23.1314696,58.4284579 23.1318198,58.4267793 23.119188,58.4221684 23.1284068,58.419481 23.1214997,58.4185965 23.1162531,58.4153056 23.1121937,58.4149934 23.1116331,58.4125202 23.1113169,58.4124104 23.105881,58.4144595 23.1019208,58.4178209 23.1105649,58.42254 23.1077347,58.4267797 23.1042323,58.4267437 23.1041605,58.4255298 23.0998646,58.4275799 23.0913116,58.4236181 23.0864249,58.4268825 23.0828485,58.4255676 23.0761297,58.4258927 23.0752561,58.4254524 23.0733927,58.4239712 23.0732746,58.420845 23.0697114,58.4189591 23.070335,58.4183053 23.0719093,58.4180686 23.0725911,58.4183114 23.073673,58.419553 23.0730795,58.4174998 23.0762404,58.4170548 23.0807095,58.4205492 23.0851702,58.4204794 23.0899255,58.4168881 23.089976,58.4163615 23.0868295,58.4156299 23.0805571,58.4167283 23.0771776,58.4143935 23.0717918,58.4158798 23.0670075,58.4030221 23.0671449,58.4022076 23.0760508,58.401035 23.0717906,58.4003108 23.0781857,58.3979898 23.0740026,58.3952949 23.074472,58.3939224 23.083909,58.3938304 23.0815912,58.3931838 23.0820751,58.3893619 23.078732,58.3868589 23.0856651,58.3878281 23.0861748,58.3883417 23.0862981,58.3891572 23.0840456,58.3899422 23.0857584,58.3943629 23.090238,58.3974437 23.0871257,58.3995835 23.089366,58.4003415 23.0912253,58.4000483 23.0916454,58.3997231 23.0938491,58.3960541 23.0874785,58.3902558 23.0926123,58.3894275 23.0918663,58.3876711 23.0944967,58.3865805 23.0900005,58.3806815 23.0878843,58.3801804 23.0895971,58.3789296 23.0886403,58.3786886 23.0827347,58.3781117 23.0820388,58.3782504 23.079352,58.379914 23.0698719,58.381267 23.0688587,58.3816772 23.0694135,58.3837683 23.0677032,58.384312 23.0662571,58.3829715 23.0605229,58.3826869 23.0619454,58.3807969 23.0576136,58.3801597 23.0562615,58.3779333 23.0551732,58.3778425 23.0539473,58.3781148 23.0491523,58.3794926 23.048474,58.3801038 23.0467336,58.3820252 23.0468167,58.3823016 23.0524179,58.3820606 23.0523829,58.3834 23.0464019,58.3859086 23.0544205,58.3858625 23.0571988,58.387629 23.0647568,58.3863149 23.0659456,58.388258 23.0668523,58.3883501 23.0701681,58.3870159 23.0721549,58.3890888 23.0690193,58.3933756 23.0666391,58.3940846 23.061752,58.3936743 23.0607255,58.3933409 23.0598913,58.3927088 23.0607779,58.3911929 23.0586433,58.3928337 23.055813,58.3923666 23.0534328,58.3934185 23.0513918,58.3917421 23.0443633,58.391741 23.0419017,58.3905923 23.041537,58.3903002 23.0411071,58.3850769 23.0371,58.3853955 23.0360163,58.3848352 23.0356863,58.3840569 23.0357087,58.3795427 23.0361471,58.3785872 23.0365691,58.3783731 23.0436643,58.3770951 23.0409743,58.3710256 23.0424811,58.3698621 23.0422295,58.3693702 23.0396814,58.3669127 23.033637,58.3670322 23.0335389,58.3664025 23.0340263,58.3646239 23.0343339,58.3644081 23.0419179,58.3608605 23.0414381,58.359375 23.0411098,58.359375 23.0392776,58.3578948 23.0361193,58.359375 23.0288213,58.3619583 23.0196881,58.3612782 23.0227588,58.3646936 23.0198942,58.3655418 23.0152096,58.3629485 23.0164409,58.3612432 23.0160195,58.3610868 23.0083338,58.3595179 23.0058032,58.359375 23.0025285,58.3605726 22.9981174,58.3602495 22.9861737,58.3647608 22.9814562,58.370182 22.9706047,58.3692542 22.9780421,58.3712065 22.9766185,58.3733296 22.9790192,58.374548 22.9678925,58.3798198 22.9672058,58.3855531 22.9598728,58.3848619 22.9571553,58.3834569 22.9542912,58.3838413 22.9566371,58.3802334 22.9480093,58.3739322 22.9493163,58.3708544 22.9465992,58.3683805 22.946564,58.3659033 22.947107,58.3652259 22.9491786,58.3644396 22.965941,58.3612062 22.9671812,58.3607306 22.9680408,58.359375 22.968044,58.359375 22.9679896,58.3586783 22.9655212,58.3561656 22.9706332,58.3494123 22.9701128,58.3486418 22.9631804,58.3471839 22.9481893,58.3479353 22.9463362,58.3469588 22.9458584,58.3371862 22.9390519,58.3352926 22.9426908,58.3330553 22.943015,58.3278691 22.9408277,58.3276463 22.9375967,58.3291776 22.9357662,58.3282611 22.9380366,58.3187116 22.9336811,58.3161997 22.9270582,58.3177466 22.9227691,58.3159605 22.923983,58.310183 22.9220948,58.3076825 22.9240152,58.3062866 22.9225878,58.3049541 22.9265817,58.3022152 22.9180098,58.3024553 22.9119672,58.2996846 22.9063391,58.3001583 22.9009047,58.2983361 22.8969686,58.3006796 22.8892885,58.2988595 22.8873895,58.3006774 22.8759626,58.3032476 22.8748573,58.3019255 22.8677891,58.3012087 22.8622971,58.2988759 22.8547992,58.2987797 22.8515625,58.2982701 22.8450564,58.2968913 22.8428068,58.29614 22.838145,58.2928993 22.8323882,58.2927153 22.8318268,58.292366 22.8268352,58.2811524 22.8312358,58.277998 22.8258426,58.2736394 22.828752,58.2726943 22.8273376,58.271607 22.8288658,58.2688508 22.8372426,58.2658644 22.8268514,58.2681208 22.8251951,58.2668637 22.8260505,58.2649812 22.82102,58.2603087 22.8194042,58.2607532 22.8194904,58.2628369 22.811727,58.2654383 22.8067623,58.2701705 22.7990642,58.2704901 22.7943869,58.2720025 22.7760952,58.2716883 22.773932,58.2705953 22.7565835,58.2709916 22.7430793,58.2782305 22.7369872,58.2797675 22.7327549,58.280163 22.7139812,58.2781574 22.7039223,58.2738357 22.6986877,58.2688903 22.7016758,58.2617074 22.717554,58.2517611 22.719413,58.2486982 22.72741,58.2450792 22.7287838,58.2423548 22.7331905,58.2406721 22.7403228,58.2409312 22.7414494,58.2325835 22.7464052,58.2284245 22.7452774,58.2255641 22.7472317,58.2220914 22.7410564,58.2184824 22.7362922,58.2178665 22.7312078,58.2144705 22.7271242,58.2148801 22.7175378,58.2118493 22.7107061,58.2130448 22.7106899,58.2112303 22.697859,58.2150341 22.6976931,58.2171049 22.6892194,58.2143781 22.6865754,58.2165364 22.6803193,58.2178236 22.6787652,58.2239397 22.6670066,58.2268885 22.6629704,58.2311594 22.6596515,58.2306587 22.6571437,58.2278552 22.6545212,58.2279242 22.656969,58.2309434 22.6603401,58.2317172 22.662221,58.236178 22.655417,58.2355072 22.6530755,58.2342373 22.6533613,58.2296143 22.6489857,58.2214313 22.6456071,58.2207223 22.6458009,58.2256145 22.638077,58.2302051 22.636138,58.2367364 22.6396785,58.239843 22.6435899,58.2396678 22.6469964,58.2369834 22.650979,58.2381808 22.6517617,58.2402186 22.6474814,58.2409974 22.6441323,58.2437294 22.6448041,58.244747 22.6521227,58.2449491 22.6533952,58.246549 22.6458708,58.2459071 22.6462713,58.2484564 22.6437286,58.2489305 22.6417886,58.2518392 22.6317478,58.2517037 22.6243155,58.2525523 22.6215163,58.2539051 22.6139371,58.2523725 22.6208946,58.2521811 22.6122468,58.2479045 22.6161183,58.2323408 22.5973896,58.2225072 22.5886278,58.2219241 22.5931618,58.2254103 22.5935516,58.2302473 22.5867403,58.2346243 22.5798224,58.2338428 22.5724792,58.2272599 22.5586956,58.2210969 22.5557265,58.2205389 22.5559639,58.2248989 22.5533627,58.2256728 22.5471638,58.2206807 22.5461109,58.2239636 22.5483944,58.2292391 22.5450494,58.2323644 22.5452384,58.2350887 22.5400245,58.2357388 22.5366617,58.2406837 22.5387548,58.242051 22.5416039,58.2392398 22.5470563,58.2474817 22.544764,58.2507681 22.5434741,58.2486454 22.5398788,58.2481619 22.536813,58.2514116 22.5271662,58.2492163 22.5277371,58.2469714 22.5230371,58.2421848 22.5171763,58.2265604 22.5085855,58.2197384 22.5083897,58.2171812 22.5059201,58.2173525 22.5076365,58.2127401 22.5053368,58.2130688 22.502219,58.2169579 22.5047168,58.2178149 22.5047336,58.219123 22.5,58.219587 22.4971153,58.2186104 22.4915878,58.2210509 22.4962806,58.2290823 22.4910191,58.2307729 22.4920717,58.2349021 22.4838023,58.2364736 22.485081,58.2384353 22.4825096,58.2399817 22.4760315,58.2371151 22.4729247,58.237887 22.4757272,58.2415456 22.474326,58.2431092 22.4767922,58.244673 22.4742697,58.2449975 22.4716353,58.2428141 22.4736533,58.2475348 22.4697856,58.2439059 22.466983,58.24485 22.4600272,58.2426695 22.458059,58.2395693 22.455567,58.238937 22.4535304,58.236593 22.4544435,58.2331117 22.4504426,58.2308682 22.4519045,58.2291493 22.4464768,58.2239842 22.4416685,58.2216105 22.4437506,58.2177572 22.4398849,58.2208976 22.4360915,58.2191669 22.4329172,58.2196878 22.4266208,58.2162549 22.4221441,58.2163579 22.4197776,58.2151942 22.4072177,58.219823 22.4049178,58.2185766 22.4120502,58.2162065 22.3969235,58.2178648 22.3964508,58.2177736 22.3969783,58.2163705 22.3947579,58.2160439 22.3966228,58.2144099 22.3960257,58.2129912 22.3954098,58.2130094 22.3911325,58.2181036 22.3850735,58.2183656 22.3775309,58.2203592 22.3762958,58.2203538 22.3709728,58.2181594 22.34826,58.2176017 22.3448852,58.2161422 22.3289672,58.2134993 22.3018422,58.2048038 22.2697545,58.1887872 22.2633306,58.1835937 22.2636952,58.1835937 22.2563827,58.1753097 22.2568665,58.1611415 22.2511339,58.1501153 22.2551825,58.146888 22.2548954,58.1433185 22.2594326,58.1385314 22.2594641,58.1352093 22.2657295,58.1304328 22.2569814,58.1240444 22.2538387,58.1160203 22.2543916,58.110913 22.2474359,58.1036497 22.244894,58.0927157 22.247893,58.0892113 22.2436692,58.0841997 22.2297428,58.079825 22.2238624,58.0731363 22.2248504,58.0708764 22.2298164,58.0755075 22.2343175,58.0740829 22.2274444,58.0718467 22.224488,58.0673587 22.2205414,58.0674855 22.2211374,58.0641487 22.2278248,58.0577883 22.228798,58.0530459 22.2286164,58.0525308 22.2271775,58.0501904 22.2266799,58.049794 22.2111518,58.0400004 22.2043777,58.0339437 22.1988523,58.0250722 22.1985435,58.0247104 22.1937705,58.0213569 22.1869556,58.0143045 22.1853333,58.0112661 22.1858041,58.0078125 22.1856371,58.0078125 22.1868145,58.0049518 22.201232,57.9892663 22.2009212,57.9817433 22.1967362,57.9805275 22.1948946,57.9779165 22.1845891,57.9741908 22.1792912,57.9689267 22.1729149,57.9660687 22.1556609,57.9659265 22.1529787,57.9654655 22.1484375,57.9631696 22.1484375,57.9628906 22.1453285,57.961853 22.141908,57.9582974 22.1287173,57.9541386 22.1245571,57.9487413 22.110714,57.9429408 22.1081984,57.9412127 22.0964088,57.9300539 22.0914752,57.9278384 22.0823652,57.927671 22.081622,57.9275357 22.0737009,57.9248241 22.0731997,57.9244834 22.0687513,57.9186661 22.0620515,57.9152644 22.0558658,57.9074835 22.0554274,57.9071413 22.0534368,57.9068713 22.0531867,57.9069252 22.0556715,57.9138443 22.0551786,57.9148086 22.0537815,57.9157025 22.0499804,57.9176505 22.0479861,57.9166864 22.0407501,57.9165086 22.0295228,57.9112868 22.0206733,57.9164408 22.0203034,57.9189701 22.0160677,57.9223748 22.0164051,57.9253627 22.0094168,57.9256333 22.006085,57.9275718 22.0067436,57.9314986 22.0028415,57.9328094 22.0065501,57.9356658 22.0067753,57.9393609 22.0043036,57.9426219 21.993848,57.946057 21.9930576,57.9483486 21.9814848,57.9468029 21.9891402,57.9492306 21.9829334,57.952858 21.9864044,57.9572173 21.9864045,57.9576845 21.9845057,57.9605389 21.9845117,57.9641817 21.9861096,57.9649673 21.9840781,57.9669089 21.9804517,57.9665436 21.9803725,57.9669492 21.9819829,57.9744252 21.971315,57.9579333 21.9484378,57.9230645 21.9255605,57.8881956 21.9026833,57.8533268 21.879806,57.8184579 21.8569288,57.7835891 21.8340516,57.7487202 21.8111743,57.7138514 21.7882971,57.6789826 21.7654198,57.6441137 21.7425426,57.6092449 21.7196654,57.574376 21.7203494,57.574681</coordinates></LinearRing></outerBoundaryIs><innerBoundaryIs><LinearRing><coordinates>24.0059398,57.0444717 24.0184295,57.054971 24.0210186,57.0590748 24.0199831,57.0598795 24.0210186,57.0603623 24.0271583,57.0566608 24.0287117,57.0537641 24.0259008,57.0553734 24.0198351,57.0513904 24.0202049,57.0503041 24.0256048,57.0498616 24.0269365,57.0481313 24.0303392,57.048574 24.0289336,57.0525571 24.0322624,57.0493788 24.0345556,57.0490969 24.0310789,57.0543675 24.036109,57.0505455 24.0402516,57.0513099 24.0439124,57.043891 24.0437546,57.0434188 24.039071,57.0397208 24.0312901,57.0375823 24.028523,57.0355732 24.0267277,57.0292513 24.0243109,57.0298147 24.0154659,57.0240622 24.0098041,57.0272284 24.0026391,57.0209658 23.9929918,57.0187623 23.9841754,57.0152543 23.9757403,57.0100117 23.9718747,57.0026183 23.9695569,57.0009857 23.9686295,57.0006204 23.9588588,56.9980617 23.9460812,56.998491 23.9445477,56.9973187 23.9376647,56.9967 23.9346318,56.9997686 23.9358233,57.0074397 23.9367982,57.0109212 23.9391812,57.0119833 23.9648584,57.0198485 23.9820429,57.0278637 23.9964271,57.037366 24.0059398,57.0444717</coordinates></LinearRing></innerBoundaryIs><innerBoundaryIs><LinearRing><coordinates>24.0452368,57.043708 24.0431365,57.0509477 24.0566736,57.0435047 24.06089,57.0397228 24.0599459,57.0396796 24.0581585,57.0388092 24.0405241,57.0395083 24.0452368,57.043708</coordinates></LinearRing></innerBoundaryIs><innerBoundaryIs><LinearRing><coordinates>24.1014028,56.9413126 24.1139219,56.9368988 24.128638,56.9295001 24.1322166,56.9279948 24.1419028,56.9226096 24.1435297,56.9200363 24.1376677,56.921492 24.1210641,56.9306514 24.1122376,56.9340705 24.1014028,56.9413126</coordinates></LinearRing></innerBoundaryIs><innerBoundaryIs><LinearRing><coordinates>23.2331688,57.822933 23.2345752,57.821685 23.2492871,57.8175222 23.2557127,57.8145596 23.2615094,57.8117533 23.2709759,57.8053457 23.2739373,57.7986265 23.2731704,57.7884578 23.270008,57.784205 23.2713112,57.7799923 23.2654914,57.782284 23.2587591,57.7805765 23.2547441,57.782968 23.2490581,57.7820909 23.2442935,57.786274 23.2393366,57.7855256 23.2374659,57.7891139 23.2300535,57.7876329 23.2273204,57.7859287 23.2255661,57.788282 23.2164596,57.788331 23.2159928,57.7904105 23.2196782,57.793722 23.2187001,57.796176 23.2144516,57.7989207 23.216288,57.7998079 23.2118098,57.8034467 23.2126814,57.8079025 23.2210279,57.8112751 23.2208807,57.8136041 23.2169642,57.8161139 23.2225598,57.8220025 23.2278332,57.8228409 23.2315274,57.8257195 23.2323209,57.8254139 23.2331688,57.822933</coordinates></LinearRing></innerBoundaryIs><innerBoundaryIs><LinearRing><coordinates>22.0451363,57.8950284 22.040976,57.8894057 22.0402224,57.889083 22.0392295,57.889029 22.0391889,57.8904324 22.043231,57.8948122 22.0427403,57.8962557 22.0429152,57.89683 22.0432235,57.896735 22.0451363,57.8950284</coordinates></LinearRing></innerBoundaryIs><innerBoundaryIs><LinearRing><coordinates>22.5581614,58.0981152 22.5549809,58.0980918 22.5538218,58.0997807 22.5547947,58.1017692 22.5558277,58.1018091 22.5601006,58.0983468 22.5630353,58.0957545 22.5581614,58.0981152</coordinates></LinearRing></innerBoundaryIs><innerBoundaryIs><LinearRing><coordinates>23.9684972,58.0986161 23.9648854,58.0994645 23.9646569,58.1047251 23.9599828,58.1082218 23.953301,58.1175853 23.9540594,58.1229928 23.9581707,58.1295419 23.957074,58.1316159 23.9624085,58.1412017 23.9601157,58.1446712 23.9635403,58.1475425 23.9599453,58.1489223 23.9727154,58.154137 23.9736195,58.1542546 23.9806219,58.1534898 23.9907031,58.1543263 24.004844,58.1568433 24.0068895,58.1567472 24.0091813,58.1564116 24.0140289,58.1535933 24.0144941,58.1531993 24.0208265,58.1520859 24.0209618,58.1517364 24.01554,58.1477047 24.0153143,58.1468529 24.0171648,58.14529 24.0163193,58.142821 24.0165448,58.1426126 24.0200984,58.1416481 24.0230538,58.1420439 24.0197074,58.1402688 24.0150203,58.1396852 24.0102583,58.13638 24.0105134,58.1329526 24.0143964,58.127714 24.0068998,58.1207571 24.0102037,58.1182177 24.0112051,58.1150279 24.0075808,58.1156058 24.0008825,58.1103849 23.9971088,58.109941 23.9917232,58.1007857 23.978161,58.10089 23.9711421,58.0963265 23.9703434,58.096413 23.9684972,58.0986161</coordinates></LinearRing></innerBoundaryIs><innerBoundaryIs><LinearRing><coordinates>22.5135695,58.1226174 22.5091968,58.1164349 22.5086066,58.1162828 22.509445,58.1237915 22.510438,58.1240885 22.5107889,58.1239398 22.5135695,58.1226174</coordinates></LinearRing></innerBoundaryIs><innerBoundaryIs><LinearRing><coordinates>22.501314,58.1212552 22.5041337,58.1272956 22.5039808,58.1277806 22.5,58.1275111 22.5,58.128069 22.5015347,58.1286993 22.5015347,58.1311475 22.5,58.1316963 22.5,58.1322544 22.4938355,58.1339573 22.4922642,58.1371562 22.48864,58.1385654 22.4903935,58.141659 22.4899977,58.1421173 22.488973,58.1425856 22.4869747,58.1426953 22.4845316,58.1422634 22.4790016,58.1395024 22.477465,58.1400845 22.4917426,58.1538746 22.492008,58.1542097 22.498542,58.1664438 22.4985133,58.1698527 22.5,58.1704798 22.5025142,58.1715178 22.502454,58.1722028 22.5,58.1721539 22.5,58.172433 22.499203,58.172459 22.4959809,58.1701399 22.494907,58.1715654 22.4951496,58.1720426 22.5,58.1763392 22.5024576,58.1767734 22.5033553,58.1753623 22.5037009,58.1752864 22.5106319,58.1754076 22.5130262,58.1723351 22.5181634,58.1740096 22.51561,58.1712695 22.5149657,58.1655617 22.5203508,58.1658403 22.5245078,58.1673362 22.5191506,58.1619139 22.5207611,58.1610022 22.5236799,58.1625423 22.5277225,58.1625077 22.5250533,58.1608731 22.5236605,58.154366 22.5270466,58.1508017 22.5320233,58.1517688 22.5338715,58.1505057 22.5373172,58.1506327 22.5373532,58.1469244 22.5341536,58.1429297 22.5189034,58.1352854 22.5133651,58.1301349 22.5040905,58.1249008 22.5047988,58.1231657 22.501314,58.1212552</coordinates></LinearRing></innerBoundaryIs><innerBoundaryIs><LinearRing><coordinates>22.469761,58.1379311 22.4650598,58.1317698 22.4645847,58.1311007 22.4636085,58.1316351 22.4643481,58.1369787 22.4645665,58.1373916 22.4667544,58.1409397 22.4738255,58.1504962 22.4763724,58.1533203 22.4801615,58.1547801 22.4808434,58.1546519 22.4814746,58.1544364 22.4771721,58.1524631 22.4770061,58.1519434 22.4798284,58.1474926 22.4767019,58.1454895 22.4738982,58.1390845 22.469761,58.1379311</coordinates></LinearRing></innerBoundaryIs><innerBoundaryIs><LinearRing><coordinates>24.1972384,58.179951 24.2006342,58.1790729 24.2044125,58.1789685 24.204928,58.1787955 24.2051595,58.1779392 24.2011415,58.1726273 24.1965839,58.1696388 24.1940547,58.1702766 24.1980824,58.1745445 24.1988264,58.1754267 24.1972384,58.179951</coordinates></LinearRing></innerBoundaryIs><innerBoundaryIs><LinearRing><coordinates>23.9588171,58.1691622 23.9585012,58.1690694 23.9550186,58.1721212 23.9592338,58.1742876 23.9596297,58.1740615 23.9588171,58.1691622</coordinates></LinearRing></innerBoundaryIs><innerBoundaryIs><LinearRing><coordinates>22.7899262,58.1618639 22.7913219,58.1609799 22.7859272,58.1617028 22.7851374,58.1624439 22.7870417,58.162755 22.7899262,58.1618639</coordinates></LinearRing></innerBoundaryIs><innerBoundaryIs><LinearRing><coordinates>22.8084621,58.156965 22.8092231,58.1574227 22.8097937,58.1572366 22.8133184,58.1529756 22.8129345,58.1527005 22.8101099,58.1546834 22.8084621,58.156965</coordinates></LinearRing></innerBoundaryIs><innerBoundaryIs><LinearRing><coordinates>22.549853,58.1463201 22.5489932,58.144061 22.5490642,58.1436223 22.5524635,58.143328 22.5533344,58.1409981 22.5529772,58.1406966 22.5487382,58.1412385 22.5445615,58.1383836 22.5394062,58.1383367 22.538708,58.1380686 22.5354677,58.133442 22.5397171,58.1451699 22.5421757,58.1468868 22.5467407,58.1463472 22.5529448,58.1486326 22.549853,58.1463201</coordinates></LinearRing></innerBoundaryIs><innerBoundaryIs><LinearRing><coordinates>22.5860626,58.1926817 22.5858988,58.1922307 22.5852307,58.1916748 22.5845588,58.1912082 22.5838803,58.1909233 22.5832402,58.1909219 22.5828373,58.191201 22.5830036,58.1916564 22.5836626,58.1922096 22.5842881,58.1927146 22.5850586,58.1931616 22.5856673,58.1929874 22.5860626,58.1926817</coordinates></LinearRing></innerBoundaryIs><innerBoundaryIs><LinearRing><coordinates>22.5934216,58.1957031 22.5866674,58.1944851 22.5887372,58.1969031 22.5881253,58.1978055 22.5876508,58.1979415 22.577973,58.1970252 22.5763429,58.1973685 22.5759203,58.1978428 22.5760412,58.2026469 22.580923,58.2058132 22.5807627,58.205927 22.5788136,58.2059286 22.5743024,58.2033182 22.5667959,58.2074155 22.5729913,58.2138108 22.5751928,58.2120988 22.5820971,58.2128099 22.5833128,58.2127113 22.5871328,58.2118737 22.5889761,58.2106653 22.5907652,58.2084827 22.5947083,58.2076908 22.5998234,58.204239 22.5999939,58.2037034 22.5985734,58.2015805 22.5942441,58.1988002 22.593971,58.1960011 22.5934216,58.1957031</coordinates></LinearRing></innerBoundaryIs><innerBoundaryIs><LinearRing><coordinates>24.099802,58.2069386 24.1050096,58.2127134 24.1078764,58.2133029 24.1097736,58.2108223 24.1168861,58.2125705 24.1191592,58.2196695 24.1245985,58.2223161 24.1299276,58.2223618 24.1330218,58.2240895 24.1332211,58.2272733 24.1385717,58.231333 24.1438388,58.2338753 24.146559,58.2327853 24.1465535,58.2326139 24.1399995,58.2287786 24.1398838,58.2239052 24.136274,58.2229021 24.1317195,58.2150689 24.1263762,58.2108757 24.1252528,58.2091556 24.1247454,58.2088187 24.1195796,58.2066602 24.1189159,58.206515 24.1091183,58.2057102 24.1078801,58.2053668 24.1063795,58.2037069 24.0999525,58.2037861 24.099802,58.2069386</coordinates></LinearRing></innerBoundaryIs><innerBoundaryIs><LinearRing><coordinates>24.118358,58.2284324 24.1182193,58.2281963 24.1154232,58.2298204 24.115117,58.2303402 24.1167223,58.2309983 24.1174381,58.2308747 24.118358,58.2284324</coordinates></LinearRing></innerBoundaryIs><innerBoundaryIs><LinearRing><coordinates>24.1282817,58.2031403 24.1265835,58.2023987 24.1251562,58.2024058 24.1252763,58.2027754 24.1296088,58.2059112 24.1282817,58.2031403</coordinates></LinearRing></innerBoundaryIs><innerBoundaryIs><LinearRing><coordinates>23.9107935,58.1968549 23.9087533,58.2009172 23.9125423,58.2003698 23.9146934,58.197226 23.9136357,58.1964571 23.9112068,58.1965262 23.9107935,58.1968549</coordinates></LinearRing></innerBoundaryIs><innerBoundaryIs><LinearRing><coordinates>24.0061157,58.2802252 24.0027035,58.2827303 24.001385,58.2859654 24.0011674,58.2867311 24.0032223,58.2891719 24.0055686,58.2885094 24.0057448,58.2879682 24.0052285,58.2872313 24.0049059,58.2870961 24.0038148,58.2882057 24.0034558,58.28817 24.0031883,58.2870814 24.0034415,58.2866328 24.00845,58.283591 24.0068254,58.2801591 24.0061157,58.2802252</coordinates></LinearRing></innerBoundaryIs><innerBoundaryIs><LinearRing><coordinates>22.9186937,58.2984529 22.9166374,58.2987921 22.9215629,58.2986464 22.9186937,58.2984529</coordinates></LinearRing></innerBoundaryIs><innerBoundaryIs><LinearRing><coordinates>22.9445537,58.3103924 22.9432876,58.3104208 22.9406818,58.3118122 22.9408984,58.3136793 22.9446374,58.3107792 22.9445537,58.3103924</coordinates></LinearRing></innerBoundaryIs><innerBoundaryIs><LinearRing><coordinates>23.8022531,58.3373643 23.8072073,58.3359723 23.8070945,58.3338412 23.8037143,58.3338617 23.7935345,58.3388952 23.7940412,58.339927 23.7953506,58.3405021 23.8019385,58.3391939 23.8023953,58.338798 23.8022531,58.3373643</coordinates></LinearRing></innerBoundaryIs><innerBoundaryIs><LinearRing><coordinates>23.0743253,58.4066212 23.0727239,58.4033401 23.0720314,58.4030323 23.0710062,58.402967 23.0718163,58.406969 23.0721185,58.4071091 23.0736861,58.4069128 23.0743253,58.4066212</coordinates></LinearRing></innerBoundaryIs><innerBoundaryIs><LinearRing><coordinates>23.0847253,58.4112735 23.0852937,58.4108418 23.0836886,58.4084606 23.0825983,58.4080325 23.0772111,58.4077621 23.0759599,58.408271 23.0778998,58.4089022 23.0717418,58.4094445 23.0736532,58.4132633 23.0745412,58.4131624 23.0794128,58.4114575 23.0847253,58.4112735</coordinates></LinearRing></innerBoundaryIs><innerBoundaryIs><LinearRing><coordinates>23.1686937,58.4128156 23.1641598,58.4137691 23.1660177,58.4153496 23.1662138,58.4155054 23.1699502,58.4145395 23.1686937,58.4128156</coordinates></LinearRing></innerBoundaryIs><innerBoundaryIs><LinearRing><coordinates>23.2912937,58.4274116 23.2878751,58.4241793 23.2832071,58.4213469 23.2773649,58.4205538 23.2724555,58.4214606 23.2705091,58.4245603 23.2697546,58.4278891 23.2715207,58.4320257 23.2724592,58.4256656 23.2745106,58.4245257 23.2771384,58.424256 23.2813483,58.4263092 23.2808185,58.4275677 23.2917764,58.4318157 23.2912117,58.4281282 23.2912937,58.4274116</coordinates></LinearRing></innerBoundaryIs><innerBoundaryIs><LinearRing><coordinates>23.6678977,58.439083 23.6678977,58.4383829 23.666572,58.4367731 23.6657629,58.436693 23.6632872,58.4380506 23.6632817,58.4386287 23.6646105,58.4404314 23.6663167,58.441117 23.6671208,58.4404095 23.6678977,58.439083</coordinates></LinearRing></innerBoundaryIs><innerBoundaryIs><LinearRing><coordinates>23.6641011,58.4431221 23.6581172,58.4434649 23.6579571,58.4437621 23.6600308,58.4454107 23.6728482,58.4500315 23.6681442,58.445295 23.6646903,58.4432613 23.6641011,58.4431221</coordinates></LinearRing></innerBoundaryIs><innerBoundaryIs><LinearRing><coordinates>23.6613603,58.4471704 23.6567059,58.4472789 23.6562947,58.4474359 23.6547502,58.4492255 23.6549385,58.4494725 23.6576684,58.4502029 23.6580042,58.4499608 23.6613603,58.4471704</coordinates></LinearRing></innerBoundaryIs><innerBoundaryIs><LinearRing><coordinates>23.6796103,58.456017 23.6804862,58.4549472 23.6795301,58.4539011 23.6790119,58.4536136 23.6745741,58.4523333 23.6720179,58.4524366 23.6726003,58.453553 23.6776416,58.4562351 23.6789002,58.4561616 23.6796103,58.456017</coordinates></LinearRing></innerBoundaryIs><innerBoundaryIs><LinearRing><coordinates>23.6652265,58.4640516 23.6648935,58.4635637 23.66017,58.4597071 23.6489838,58.4581774 23.6394438,58.457669 23.6329356,58.457674 23.6313314,58.4588077 23.6308892,58.460875 23.6315346,58.4621323 23.6405833,58.462024 23.6489598,58.459582 23.6498867,58.4596916 23.6640429,58.465745 23.6644382,58.4656523 23.6652265,58.4640516</coordinates></LinearRing></innerBoundaryIs><innerBoundaryIs><LinearRing><coordinates>23.3715252,58.4877982 23.3769236,58.4855955 23.3764801,58.4845124 23.3757405,58.4842532 23.3725216,58.4842747 23.3696473,58.4865808 23.3662395,58.4872702 23.3684663,58.4883093 23.3695796,58.4882107 23.3715252,58.4877982</coordinates></LinearRing></innerBoundaryIs><innerBoundaryIs><LinearRing><coordinates>23.2726598,58.4347074 23.2718725,58.434702 23.2692124,58.4380667 23.2690198,58.4386491 23.2700639,58.4391541 23.2704439,58.4391143 23.273863,58.4375535 23.2726598,58.4347074</coordinates></LinearRing></innerBoundaryIs><innerBoundaryIs><LinearRing><coordinates>23.2824088,58.4408314 23.2838047,58.4387289 23.2812788,58.4387085 23.2793837,58.4397473 23.2824088,58.4408314</coordinates></LinearRing></innerBoundaryIs><innerBoundaryIs><LinearRing><coordinates>23.2820436,58.4422256 23.2817577,58.441751 23.2809451,58.4414936 23.2784506,58.4413232 23.2773805,58.4416624 23.2768646,58.4424579 23.2779123,58.4434057 23.2787358,58.4433063 23.2820436,58.4422256</coordinates></LinearRing></innerBoundaryIs><innerBoundaryIs><LinearRing><coordinates>23.2588027,58.4527047 23.2584118,58.4521501 23.2568402,58.450652 23.2549566,58.4505053 23.2537395,58.4516006 23.2572612,58.4534398 23.2579679,58.4533797 23.2588027,58.4527047</coordinates></LinearRing></innerBoundaryIs><innerBoundaryIs><LinearRing><coordinates>23.1678767,58.4325076 23.1667325,58.4314917 23.1657062,58.4313751 23.1644145,58.4327871 23.1643759,58.4332507 23.1664596,58.4343315 23.1679587,58.4334579 23.1678767,58.4325076</coordinates></LinearRing></innerBoundaryIs><innerBoundaryIs><LinearRing><coordinates>23.1681278,58.4417459 23.1722242,58.439898 23.1667352,58.4402643 23.166012,58.4418693 23.1674242,58.4434258 23.1681036,58.4433312 23.1681278,58.4417459</coordinates></LinearRing></innerBoundaryIs><innerBoundaryIs><LinearRing><coordinates>23.1611995,58.4524204 23.1592731,58.4512929 23.1565099,58.45126 23.1552277,58.4527034 23.1595474,58.459812 23.1601502,58.4597934 23.1611995,58.4524204</coordinates></LinearRing></innerBoundaryIs><innerBoundaryIs><LinearRing><coordinates>23.1567192,58.464448 23.155165,58.4643354 23.1550419,58.465517 23.1552951,58.4657975 23.1582534,58.4661982 23.1582685,58.4649389 23.1567192,58.464448</coordinates></LinearRing></innerBoundaryIs><innerBoundaryIs><LinearRing><coordinates>23.0972254,58.4189621 23.0937772,58.4197001 23.0938724,58.4198961 23.0987848,58.4215775 23.099821,58.4202754 23.0972254,58.4189621</coordinates></LinearRing></innerBoundaryIs><innerBoundaryIs><LinearRing><coordinates>22.9639219,58.366671 22.9603369,58.3658578 22.9586668,58.3659621 22.9596331,58.3669707 22.9634672,58.367412 22.9642904,58.3671967 22.9639219,58.366671</coordinates></LinearRing></innerBoundaryIs><innerBoundaryIs><LinearRing><coordinates>22.9547052,58.3675781 22.960735,58.3678768 22.9590344,58.3673596 22.9547052,58.3675781</coordinates></LinearRing></innerBoundaryIs><innerBoundaryIs><LinearRing><coordinates>22.5797828,58.2140971 22.5792077,58.2145109 22.5779597,58.2172797 22.5892758,58.2209949 22.5929167,58.2207977 22.595004,58.2206492 22.5950115,58.2193686 22.5891298,58.2181634 22.582352,58.2140101 22.5797828,58.2140971</coordinates></LinearRing></innerBoundaryIs><innerBoundaryIs><LinearRing><coordinates>22.5198147,58.2230558 22.5190966,58.2225766 22.5162768,58.2216489 22.5144475,58.2217302 22.5146596,58.2222161 22.5188351,58.2244132 22.519455,58.2242113 22.5198147,58.2230558</coordinates></LinearRing></innerBoundaryIs><innerBoundaryIs><LinearRing><coordinates>22.4643487,58.2319607 22.4631841,58.231477 22.4605453,58.2316604 22.4617488,58.233669 22.4632676,58.2348828 22.4678041,58.2364802 22.4684933,58.2353581 22.4643487,58.2319607</coordinates></LinearRing></innerBoundaryIs></Polygon>
  </Placemark>
</Folder>
</Document></kml>
